$$SOE
2460721.500000000, A.D. 2025-Feb-15 00:00:00.0000, 1.487908937277685E+08, -1.935713300177764E+08, 4.052363395022450E+07,
2460728.500000000, A.D. 2025-Feb-22 00:00:00.0000, 1.616084030398891E+08, -1.838658827678849E+08, 3.966977285841497E+07,
2460735.500000000, A.D. 2025-Mar-01 00:00:00.0000, 1.739118115424163E+08, -1.735754720792204E+08, 3.868969796319905E+07,
2460742.500000000, A.D. 2025-Mar-08 00:00:00.0000, 1.856669838029313E+08, -1.627377959877680E+08, 3.758763471784969E+07,
2460749.500000000, A.D. 2025-Mar-15 00:00:00.0000, 1.968438616808146E+08, -1.513931253628817E+08, 3.636846942130481E+07,
2460756.500000000, A.D. 2025-Mar-22 00:00:00.0000, 2.074166783157299E+08, -1.395837283997136E+08, 3.503766730923147E+07,
2460763.500000000, A.D. 2025-Mar-29 00:00:00.0000, 2.173640731690201E+08, -1.273532860323473E+08, 3.360118263961326E+07,
2460770.500000000, A.D. 2025-Apr-05 00:00:00.0000, 2.266691116886096E+08, -1.147463145874899E+08, 3.206536439316906E+07,
2460777.500000000, A.D. 2025-Apr-12 00:00:00.0000, 2.353192149982007E+08, -1.018076129475351E+08, 3.043686106177015E+07,
2460784.500000000, A.D. 2025-Apr-19 00:00:00.0000, 2.433060099463018E+08, -8.858174957453054E+07, 2.872252746480546E+07,
2460791.500000000, A.D. 2025-Apr-26 00:00:00.0000, 2.506251124961234E+08, -7.511260068097952E+07, 2.692933611559292E+07,
2460798.500000000, A.D. 2025-May-03 00:00:00.0000, 2.572758584420649E+08, -6.144294706361853E+07, 2.506429517595625E+07,
2460805.500000000, A.D. 2025-May-10 00:00:00.0000, 2.632609955735656E+08, -4.761413370110148E+07, 2.313437449287086E+07,
2460812.500000000, A.D. 2025-May-17 00:00:00.0000, 2.685863508427338E+08, -3.366579318217114E+07, 2.114644066493518E+07,
2460819.500000000, A.D. 2025-May-24 00:00:00.0000, 2.732604850480291E+08, -1.963563144791255E+07, 1.910720157470124E+07,
2460826.500000000, A.D. 2025-May-31 00:00:00.0000, 2.772943461954977E+08, -5.559271922518085E+06, 1.702316039994073E+07,
2460833.500000000, A.D. 2025-Jun-07 00:00:00.0000, 2.807009300836441E+08, 8.529848268142039E+06, 1.490057892249946E+07,
2460840.500000000, A.D. 2025-Jun-14 00:00:00.0000, 2.834949528570494E+08, 2.260053534268024E+07, 1.274544972407720E+07,
2460847.500000000, A.D. 2025-Jun-21 00:00:00.0000, 2.856925420470901E+08, 3.662385237099149E+07, 1.056347613043983E+07,
2460854.500000000, A.D. 2025-Jun-28 00:00:00.0000, 2.873109528666925E+08, 5.057309756151387E+07, 8.360058890478197E+06,
2460861.500000000, A.D. 2025-Jul-05 00:00:00.0000, 2.883683104531609E+08, 6.442375582856271E+07, 6.140288990029592E+06,
2460868.500000000, A.D. 2025-Jul-12 00:00:00.0000, 2.888833778824700E+08, 7.815342874335158E+07, 3.908945729497816E+06,
2460875.500000000, A.D. 2025-Jul-19 00:00:00.0000, 2.888753501876911E+08, 9.174174763228267E+07, 1.670499121573031E+06,
2460882.500000000, A.D. 2025-Jul-26 00:00:00.0000, 2.883636738808448E+08, 1.051702744648203E+08, -5.708842336177006E+05,
2460889.500000000, A.D. 2025-Aug-02 00:00:00.0000, 2.873678907797888E+08, 1.184223945962425E+08, -2.811332541010916E+06,
2460896.500000000, A.D. 2025-Aug-09 00:00:00.0000, 2.859075045297448E+08, 1.314832047610623E+08, -5.047258127196752E+06,
2460903.500000000, A.D. 2025-Aug-16 00:00:00.0000, 2.840018680511139E+08, 1.443393990682856E+08, -7.275345257254325E+06,
2460910.500000000, A.D. 2025-Aug-23 00:00:00.0000, 2.816700902676902E+08, 1.569791552742626E+08, -9.492536957683034E+06,
2460917.500000000, A.D. 2025-Aug-30 00:00:00.0000, 2.789309604846085E+08, 1.693920238011213E+08, -1.169602122144475E+07,
2460924.500000000, A.D. 2025-Sep-06 00:00:00.0000, 2.758028870638531E+08, 1.815688218234910E+08, -1.388321671575981E+07,
2460931.500000000, A.D. 2025-Sep-13 00:00:00.0000, 2.723038468824937E+08, 1.935015309147492E+08, -1.605175830928702E+07,
2460938.500000000, A.D. 2025-Sep-20 00:00:00.0000, 2.684513471317559E+08, 2.051831972777620E+08, -1.819948306558068E+07,
2460945.500000000, A.D. 2025-Sep-27 00:00:00.0000, 2.642623989247054E+08, 2.166078380882760E+08, -2.032441670872778E+07,
2460952.500000000, A.D. 2025-Oct-04 00:00:00.0000, 2.597534992492086E+08, 2.277703547160836E+08, -2.242476045258589E+07,
2460959.500000000, A.D. 2025-Oct-11 00:00:00.0000, 2.549406195997729E+08, 2.386664519538652E+08, -2.449887832277212E+07,
2460966.500000000, A.D. 2025-Oct-18 00:00:00.0000, 2.498392004253965E+08, 2.492925629309890E+08, -2.654528507837641E+07,
2460973.500000000, A.D. 2025-Oct-25 00:00:00.0000, 2.444641505233029E+08, 2.596457795833948E+08, -2.856263478104880E+07,
2460980.500000000, A.D. 2025-Nov-01 00:00:00.0000, 2.388298505351031E+08, 2.697237884884634E+08, -3.054971003116032E+07,
2460987.500000000, A.D. 2025-Nov-08 00:00:00.0000, 2.329501598126872E+08, 2.795248117807648E+08, -3.250541187949641E+07,
2460994.500000000, A.D. 2025-Nov-15 00:00:00.0000, 2.268384261390183E+08, 2.890475528086862E+08, -3.442875042431507E+07,
2461001.500000000, A.D. 2025-Nov-22 00:00:00.0000, 2.205074981388277E+08, 2.982911464557749E+08, -3.631883609622653E+07,
2461008.500000000, A.D. 2025-Nov-29 00:00:00.0000, 2.139697397437153E+08, 3.072551149579696E+08, -3.817487150210111E+07,
2461015.500000000, A.D. 2025-Dec-06 00:00:00.0000, 2.072370440223496E+08, 3.159393287747977E+08, -3.999614360316855E+07,
2461022.500000000, A.D. 2025-Dec-13 00:00:00.0000, 2.003208464627844E+08, 3.243439688528899E+08, -4.178201651323199E+07,
2461029.500000000, A.D. 2025-Dec-20 00:00:00.0000, 1.932321409203513E+08, 3.324694910254689E+08, -4.353192512545659E+07,
2461036.500000000, A.D. 2025-Dec-27 00:00:00.0000, 1.859814969240561E+08, 3.403165948624124E+08, -4.524536922716315E+07,
2461043.500000000, A.D. 2026-Jan-03 00:00:00.0000, 1.785790766861863E+08, 3.478861960927083E+08, -4.692190798738185E+07,
2461050.500000000, A.D. 2026-Jan-10 00:00:00.0000, 1.710346517649242E+08, 3.551794016753184E+08, -4.856115485150611E+07,
2461057.500000000, A.D. 2026-Jan-17 00:00:00.0000, 1.633576194833126E+08, 3.621974871981342E+08, -5.016277284150375E+07,
2461064.500000000, A.D. 2026-Jan-24 00:00:00.0000, 1.555570190789630E+08, 3.689418764151211E+08, -5.172647023766430E+07,
2461071.500000000, A.D. 2026-Jan-31 00:00:00.0000, 1.476415475261380E+08, 3.754141227176822E+08, -5.325199661661120E+07,
2461078.500000000, A.D. 2026-Feb-07 00:00:00.0000, 1.396195750282668E+08, 3.816158923018786E+08, -5.473913922936362E+07,
2461085.500000000, A.D. 2026-Feb-14 00:00:00.0000, 1.314991603860388E+08, 3.875489488502803E+08, -5.618771971916558E+07,
2461092.500000000, A.D. 2026-Feb-21 00:00:00.0000, 1.232880665945350E+08, 3.932151401546456E+08, -5.759759114483795E+07,
2461099.500000000, A.D. 2026-Feb-28 00:00:00.0000, 1.149937755625713E+08, 3.986163876945328E+08, -5.896863509428693E+07,
2461106.500000000, A.D. 2026-Mar-07 00:00:00.0000, 1.066234998797001E+08, 4.037546770908331E+08, -6.030075883655582E+07,
2461113.500000000, A.D. 2026-Mar-14 00:00:00.0000, 9.818419439526168E+07, 4.086320469851224E+08, -6.159389293851341E+07,
2461120.500000000, A.D. 2026-Mar-21 00:00:00.0000, 8.968256939263715E+07, 4.132505791415768E+08, -6.284798925767890E+07,
2461127.500000000, A.D. 2026-Mar-28 00:00:00.0000, 8.112510335519850E+07, 4.176123907038576E+08, -6.406301902720635E+07,
2461134.500000000, A.D. 2026-Apr-04 00:00:00.0000, 7.251805472771911E+07, 4.217196275523058E+08, -6.523897104112341E+07,
2461141.500000000, A.D. 2026-Apr-11 00:00:00.0000, 6.386747295766518E+07, 4.255744583207113E+08, -6.637584998011459E+07,
2461148.500000000, A.D. 2026-Apr-18 00:00:00.0000, 5.517920898833191E+07, 4.291790689918403E+08, -6.747367487956122E+07,
2461155.500000000, A.D. 2026-Apr-25 00:00:00.0000, 4.645892526297614E+07, 4.325356580188862E+08, -6.853247773012087E+07,
2461162.500000000, A.D. 2026-May-02 00:00:00.0000, 3.771210528410679E+07, 4.356464318831735E+08, -6.955230220454128E+07,
2461169.500000000, A.D. 2026-May-09 00:00:00.0000, 2.894406286685791E+07, 4.385136009696826E+08, -7.053320251764162E+07,
2461176.500000000, A.D. 2026-May-16 00:00:00.0000, 2.015995148041774E+07, 4.411393758533891E+08, -7.147524243455154E+07,
2461183.500000000, A.D. 2026-May-23 00:00:00.0000, 1.136477374739851E+07, 4.435259649787471E+08, -7.237849434146351E+07,
2461190.500000000, A.D. 2026-May-30 00:00:00.0000, 2.563389042894766E+06, 4.456755740140641E+08, -7.324303815560609E+07,
2461197.500000000, A.D. 2026-Jun-06 00:00:00.0000, -6.239481105211690E+06, 4.475904035686951E+08, -7.406896030527146E+07,
2461204.500000000, A.D. 2026-Jun-13 00:00:00.0000, -1.503924613355727E+07, 4.492726454392051E+08, -7.485635309324455E+07,
2461211.500000000, A.D. 2026-Jun-20 00:00:00.0000, -2.383143856226729E+07, 4.507244802838793E+08, -7.560531415383780E+07,
2461218.500000000, A.D. 2026-Jun-27 00:00:00.0000, -3.261170679641014E+07, 4.519480763589867E+08, -7.631594587046638E+07,
2461225.500000000, A.D. 2026-Jul-04 00:00:00.0000, -4.137580859430426E+07, 4.529455885171252E+08, -7.698835481209359E+07,
2461232.500000000, A.D. 2026-Jul-11 00:00:00.0000, -5.011960493382239E+07, 4.537191573141540E+08, -7.762265121830291E+07,
2461239.500000000, A.D. 2026-Jul-18 00:00:00.0000, -5.883905416940535E+07, 4.542709082313842E+08, -7.821894853560866E+07,
2461246.500000000, A.D. 2026-Jul-25 00:00:00.0000, -6.753020644118620E+07, 4.546029509986782E+08, -7.877736300358509E+07,
2461253.500000000, A.D. 2026-Aug-01 00:00:00.0000, -7.618919827448463E+07, 4.547173789549915E+08, -7.929801329599249E+07,
2461260.500000000, A.D. 2026-Aug-08 00:00:00.0000, -8.481224714178437E+07, 4.546162683967028E+08, -7.978102023661049E+07,
2461267.500000000, A.D. 2026-Aug-15 00:00:00.0000, -9.339564555996971E+07, 4.543016783520724E+08, -8.022650658842114E+07,
2461274.500000000, A.D. 2026-Aug-22 00:00:00.0000, -1.019357554721324E+08, 4.537756519932660E+08, -8.063459674447948E+07,
2461281.500000000, A.D. 2026-Aug-29 00:00:00.0000, -1.104290051903675E+08, 4.530402183039500E+08, -8.100541622064573E+07,
2461288.500000000, A.D. 2026-Sep-05 00:00:00.0000, -1.188718867543676E+08, 4.520973911233348E+08, -8.133909137722445E+07,
$$EOE